[{"OBJECT_NAME":"RESURS-P 5","OBJECT_ID":"2024-250A","EPOCH":"2026-03-09T23:31:56.908992","MEAN_MOTION":15.32839945,"ECCENTRICITY":0.00026027,"INCLINATION":97.276,"RA_OF_ASC_NODE":355.9792,"ARG_OF_PERICENTER":63.1234,"MEAN_ANOMALY":297.0274,"EPHEMERIS_TYPE":0,"CLASSIFICATION_TYPE":"U","NORAD_CAT_ID":62430,"ELEMENT_SET_NO":999,"REV_AT_EPOCH":6735,"BSTAR":0.00015600887,"MEAN_MOTION_DOT":4.871e-5,"MEAN_MOTION_DDOT":0},{"OBJECT_NAME":"STARLINK-35572","OBJECT_ID":"2025-237D","EPOCH":"2026-03-09T21:56:11.819616","MEAN_MOTION":15.30213862,"ECCENTRICITY":0.0001507,"INCLINATION":53.1612,"RA_OF_ASC_NODE":38.6754,"ARG_OF_PERICENTER":101.9073,"MEAN_ANOMALY":258.2097,"EPHEMERIS_TYPE":0,"CLASSIFICATION_TYPE":"U","NORAD_CAT_ID":66117,"ELEMENT_SET_NO":999,"REV_AT_EPOCH":2264,"BSTAR":0.0013011272,"MEAN_MOTION_DOT":0.00038392,"MEAN_MOTION_DDOT":0}]
